NORAD_CAT_ID,OBJECT_NAME,OBJECT_TYPE,EPOCH,MEAN_MOTION,ECCENTRICITY,INCLINATION,RA_OF_ASC_NODE,ARG_OF_PERICENTER,MEAN_ANOMALY,BSTAR,MEAN_MOTION_DOT,MEAN_MOTION_DDOT,TLE_LINE0,TLE_LINE1,TLE_LINE2,SEMIMAJOR_AXIS,PERIOD,APOGEE,PERIGEE,DECAYED
56782.0,STARLINK-6352,PAYLOAD,2024-06-14 23:04:10,14.98328739,0.0002958,69.9992,119.9213,270.2271,89.8549,7.4723e-05,7.99e-06,0.0,0 STARLINK-6352,1 56782U 23078R   24166.96123222  .00000799  00000-0  74723-4 0  9996,2 56782  69.9992 119.9213 0002958 270.2271  89.8549 14.98328739 58397,6950.197,96.107,574.118,570.006,0.0
56782.0,STARLINK-6352,PAYLOAD,2024-06-15 13:29:22,14.98330196,0.0002911,69.9994,118.4066,269.9656,90.117,3.7394e-05,3.53e-06,0.0,0 STARLINK-6352,1 56782U 23078R   24167.56207161  .00000353  00000-0  37394-4 0  9997,2 56782  69.9994 118.4066 0002911 269.9656  90.1170 14.98330196 58485,6950.192,96.107,574.08,570.034,0.0
56782.0,STARLINK-6352,PAYLOAD,2024-06-15 21:30:03,14.98331119,0.0002878,69.9994,117.5652,269.5422,90.5407,9.5907e-06,2.1e-07,0.0,0 STARLINK-6352,1 56782U 23078R   24167.89587172  .00000021  00000-0  95907-5 0  9993,2 56782  69.9994 117.5652 0002878 269.5422  90.5407 14.98331119 58534,6950.189,96.107,574.055,570.054,0.0
56782.0,STARLINK-6352,PAYLOAD,2024-06-16 07:06:51,14.98335116,0.0002799,69.9995,116.5558,268.0141,92.0698,5.6413e-05,5.8e-06,0.0,0 STARLINK-6352,1 56782U 23078R   24168.29642695  .00000580  00000-0  56413-4 0  9998,2 56782  69.9995 116.5558 0002799 268.0141  92.0698 14.98335116 58599,6950.177,96.107,573.987,570.097,0.0
56782.0,STARLINK-6352,PAYLOAD,2024-06-16 21:32:04,14.9832843,0.000268,69.9999,115.041,269.338,90.7472,-6.8674e-05,-9.12e-06,0.0,0 STARLINK-6352,1 56782U 23078R   24168.89727405 -.00000912  00000-0 -68674-4 0  9990,2 56782  69.9999 115.0410 0002680 269.3380  90.7472 14.98328430 58688,6950.198,96.107,573.925,570.2,0.0
56782.0,STARLINK-6352,PAYLOAD,2024-06-17 21:34:05,14.98331052,0.0002698,69.9996,112.5164,266.1187,93.9664,-1.8575e-05,-3.15e-06,0.0,0 STARLINK-6352,1 56782U 23078R   24169.89867123 -.00000315  00000-0 -18575-4 0  9995,2 56782  69.9996 112.5164 0002698 266.1187  93.9664 14.98331052 58831,6950.19,96.107,573.93,570.179,0.0
56782.0,STARLINK-6352,PAYLOAD,2024-06-18 05:34:45,14.98330322,0.0002746,69.9996,111.6743,264.6804,95.4041,-9.3716e-06,-2.05e-06,0.0,0 STARLINK-6352,1 56782U 23078R   24170.23247110 -.00000205  00000-0 -93716-5 0  9992,2 56782  69.9996 111.6743 0002746 264.6804  95.4041 14.98330322 59147,6950.192,96.107,573.965,570.148,0.0
56782.0,STARLINK-6352,PAYLOAD,2024-06-18 13:35:26,14.98323527,0.0002873,69.999,110.832,264.6711,95.4121,6.8031e-05,7.19e-06,0.0,0 STARLINK-6352,1 56782U 23078R   24170.56627317  .00000719  00000-0  68031-4 0  9998,2 56782  69.9990 110.8320 0002873 264.6711  95.4121 14.98323527 58935,6950.213,96.107,574.075,570.081,0.0
56782.0,STARLINK-6352,PAYLOAD,2024-06-18 21:36:06,14.98323634,0.0002906,69.9993,109.9904,267.1027,92.98,-5.7418e-06,-1.61e-06,0.0,0 STARLINK-6352,1 56782U 23078R   24170.90007543 -.00000161  00000-0 -57418-5 0  9990,2 56782  69.9993 109.9904 0002906 267.1027  92.9800 14.98323634 58980,6950.213,96.107,574.097,570.058,0.0
56782.0,STARLINK-6352,PAYLOAD,2024-06-19 05:36:46,14.98328176,0.0002916,69.9992,109.149,268.2839,91.7986,2.5171e-05,2.07e-06,0.0,0 STARLINK-6352,1 56782U 23078R   24171.23387252  .00000207  00000-0  25171-4 0  9994,2 56782  69.9992 109.1490 0002916 268.2839  91.7986 14.98328176 59298,6950.199,96.107,574.09,570.037,0.0
56782.0,STARLINK-6352,PAYLOAD,2024-06-19 13:37:26,14.98328379,0.0002897,69.9994,108.3069,268.5754,91.5073,2.5347e-05,2.09e-06,0.0,0 STARLINK-6352,1 56782U 23078R   24171.56767271  .00000209  00000-0  25347-4 0  9990,2 56782  69.9994 108.3069 0002897 268.5754  91.5073 14.98328379 59087,6950.198,96.107,574.076,570.049,0.0
56782.0,STARLINK-6352,PAYLOAD,2024-06-19 21:38:07,14.98329408,0.0002925,69.9992,107.4654,268.5773,91.5051,2.7163e-05,2.31e-06,0.0,0 STARLINK-6352,1 56782U 23078R   24171.90147200  .00000231  00000-0  27163-4 0  9995,2 56782  69.9992 107.4654 0002925 268.5773  91.5051 14.98329408 59134,6950.195,96.107,574.093,570.027,0.0
56782.0,STARLINK-6352,PAYLOAD,2024-06-20 05:38:47,14.98335384,0.0002928,69.9993,106.6239,268.7565,91.3258,4.2671e-05,4.16e-06,0.0,0 STARLINK-6352,1 56782U 23078R   24172.23526739  .00000416  00000-0  42671-4 0  9996,2 56782  69.9993 106.6239 0002928 268.7565  91.3258 14.98335384 59181,6950.176,96.107,574.076,570.006,0.0
56782.0,STARLINK-6352,PAYLOAD,2024-06-20 21:40:08,14.98328511,0.0002847,69.9994,104.9403,268.6125,91.4708,2.0797e-05,1.55e-06,0.0,0 STARLINK-6352,1 56782U 23078R   24172.90287161  .00000155  00000-0  20797-4 0  9998,2 56782  69.9994 104.9403 0002847 268.6125  91.4708 14.98328511 59283,6950.197,96.107,574.041,570.084,0.0
56782.0,STARLINK-6352,PAYLOAD,2024-06-20 23:16:16,14.98328565,0.0002848,69.9994,104.772,268.5879,91.4954,2.0726e-05,1.54e-06,0.0,0 STARLINK-6352,1 56782U 23078R   24172.96963160  .00000154  00000-0  20726-4 0  9995,2 56782  69.9994 104.7720 0002848 268.5879  91.4954 14.98328565 59551,6950.197,96.107,574.042,570.083,0.0
56782.0,STARLINK-6352,PAYLOAD,2024-06-21 05:40:48,14.98331575,0.0002905,69.9995,104.0995,269.5574,90.5253,2.4233e-05,1.96e-06,0.0,0 STARLINK-6352,1 56782U 23078R   24173.23666949  .00000196  00000-0  24233-4 0  9994,2 56782  69.9995 104.0995 0002905 269.5574  90.5253 14.98331575 59339,6950.188,96.107,574.072,570.034,0.0
56782.0,STARLINK-6352,PAYLOAD,2024-06-21 21:42:09,14.98329631,0.0002749,70.0001,102.4164,271.9892,88.0952,-4.2298e-05,-5.98e-06,0.0,0 STARLINK-6352,1 56782U 23078R   24173.90427289 -.00000598  00000-0 -42298-4 0  9999,2 56782  70.0001 102.4164 0002749 271.9892  88.0952 14.98329631 59435,6950.194,96.107,573.97,570.148,0.0
56782.0,STARLINK-6352,PAYLOAD,2024-06-22 04:06:41,14.98329814,0.0002693,70.0002,101.7441,266.4679,93.6172,-3.6518e-05,-5.29e-06,0.0,0 STARLINK-6352,1 56782U 23078R   24174.17131233 -.00000529  00000-0 -36518-4 0  9992,2 56782  70.0002 101.7441 0002693 266.4679  93.6172 14.98329814 59738,6950.193,96.107,573.93,570.187,0.0
56782.0,STARLINK-6352,PAYLOAD,2024-06-22 05:42:49,14.98329937,0.000269,70.0002,101.5758,266.3343,93.7509,-3.4373e-05,-5.03e-06,0.0,0 STARLINK-6352,1 56782U 23078R   24174.23807218 -.00000503  00000-0 -34373-4 0  9991,2 56782  70.0002 101.5758 0002690 266.3343  93.7509 14.98329937 59484,6950.193,96.107,573.928,570.188,0.0
56782.0,STARLINK-6352,PAYLOAD,2024-06-22 21:44:09,14.98331407,0.0002772,70.0,99.8921,267.8902,92.194,8.531e-06,9e-08,0.0,0 STARLINK-6352,1 56782U 23078R   24174.90566932  .00000009  00000-0  85310-5 0  9997,2 56782  70.0000  99.8921 0002772 267.8902  92.1940 14.98331407 59589,6950.189,96.107,573.98,570.127,0.0
56782.0,STARLINK-6352,PAYLOAD,2024-06-23 04:08:41,14.98332907,0.0002753,70.0001,99.219,267.4411,92.6433,2.6002e-05,2.17e-06,0.0,0 STARLINK-6352,1 56782U 23078R   24175.17270752  .00000217  00000-0  26002-4 0  9992,2 56782  70.0001  99.2190 0002753 267.4411  92.6433 14.98332907 59883,6950.184,96.107,573.962,570.136,0.0
56782.0,STARLINK-6352,PAYLOAD,2024-06-23 05:44:49,14.98334339,0.0002764,70.0001,99.0505,267.5865,92.4978,3.998e-05,3.84e-06,0.0,0 STARLINK-6352,1 56782U 23078R   24175.23946609  .00000384  00000-0  39980-4 0  9994,2 56782  70.0001  99.0505 0002764 267.5865  92.4978 14.98334339 59633,6950.179,96.107,573.966,570.123,0.0
56782.0,STARLINK-6352,PAYLOAD,2024-06-23 21:46:10,14.9832784,0.0002687,70.0,97.3665,259.2163,100.8694,9.7985e-06,2.4e-07,0.0,0 STARLINK-6352,1 56782U 23078R   24175.90707030  .00000024  00000-0  97985-5 0  9992,2 56782  70.0000  97.3665 0002687 259.2163 100.8694 14.98327840 59732,6950.2,96.107,573.932,570.197,0.0
56782.0,STARLINK-6352,PAYLOAD,2024-06-24 04:10:43,14.98328834,0.0002713,70.0001,96.6932,260.7525,99.3327,1.6462e-05,1.03e-06,0.0,0 STARLINK-6352,1 56782U 23078R   24176.17410974  .00000103  00000-0  16462-4 0  9998,2 56782  70.0001  96.6932 0002713 260.7525  99.3327 14.98328834 60035,6950.196,96.107,573.947,570.176,0.0
56782.0,STARLINK-6352,PAYLOAD,2024-06-24 21:48:11,14.98330312,0.0002726,70.0001,94.8416,260.3372,99.7479,-2.9041e-05,-4.39e-06,0.0,0 STARLINK-6352,1 56782U 23078R   24176.90846983 -.00000439  00000-0 -29041-4 0  9993,2 56782  70.0001  94.8416 0002726 260.3372  99.7479 14.98330312 59889,6950.192,96.107,573.952,570.162,0.0
56782.0,STARLINK-6352,PAYLOAD,2024-06-25 04:12:44,14.98330003,0.0002735,70.0003,94.1685,260.7403,99.3446,-3.0517e-05,-4.57e-06,0.0,0 STARLINK-6352,1 56782U 23078R   24177.17551007 -.00000457  00000-0 -30517-4 0  9993,2 56782  70.0003  94.1685 0002735 260.7403  99.3446 14.98330003 60183,6950.193,96.107,573.959,570.157,0.0
56782.0,STARLINK-6352,PAYLOAD,2024-06-25 21:50:12,14.98333379,0.0002843,70.0002,92.3176,262.613,97.4706,3.129e-05,2.8e-06,0.0,0 STARLINK-6352,1 56782U 23078R   24177.90986515  .00000280  00000-0  31290-4 0  9991,2 56782  70.0002  92.3176 0002843 262.6130  97.4706 14.98333379 60036,6950.182,96.107,574.023,570.072,0.0
56782.0,STARLINK-6352,PAYLOAD,2024-06-26 04:14:44,14.98337102,0.0002816,70.0002,91.6444,262.6336,97.4503,7.2405e-05,7.71e-06,0.0,0 STARLINK-6352,1 56782U 23078R   24178.17690083  .00000771  00000-0  72405-4 0  9991,2 56782  70.0002  91.6444 0002816 262.6336  97.4503 14.98337102 60330,6950.171,96.107,573.993,570.079,0.0
56782.0,STARLINK-6352,PAYLOAD,2024-06-27 04:16:47,14.98271991,0.0002355,70.0006,89.1211,264.2432,95.8458,0.00091777,0.00010858,0.0,0 STARLINK-6352,1 56782U 23078R   24179.17832208  .00010858  00000-0  91777-3 0  9998,2 56782  70.0006  89.1211 0002355 264.2432  95.8458 14.98271991 60481,6950.372,96.111,573.874,570.6,0.0
56782.0,STARLINK-6352,PAYLOAD,2024-06-27 10:41:18,14.98327811,0.0002626,70.0009,88.4459,269.1098,90.976,-5.7586e-05,-7.8e-06,0.0,0 STARLINK-6352,1 56782U 23078R   24179.44535119 -.00000780  00000-0 -57586-4 0  9995,2 56782  70.0009  88.4459 0002626 269.1098  90.9760 14.98327811 60523,6950.2,96.107,573.89,570.24,0.0
